{
    "links": {
        "self": "http://www.neowsapp.com/rest/v1/neo/3802454?api_key=iIulBulltgU6a56xZRHN4H3l9WmuAYTsLGpBGhQ2"
    },
    "id": "3802454",
    "neo_reference_id": "3802454",
    "name": "(2018 GS2)",
    "designation": "2018 GS2",
    "nasa_jpl_url": "http://ssd.jpl.nasa.gov/sbdb.cgi?sstr=3802454",
    "absolute_magnitude_h": 24.9,
    "estimated_diameter": {
        "kilometers": {
            "estimated_diameter_min": 0.0278326768,
            "estimated_diameter_max": 0.0622357573
        },
        "meters": {
            "estimated_diameter_min": 27.8326768072,
            "estimated_diameter_max": 62.2357573367
        },
        "miles": {
            "estimated_diameter_min": 0.0172944182,
            "estimated_diameter_max": 0.0386714948
        },
        "feet": {
            "estimated_diameter_min": 91.3145593761,
            "estimated_diameter_max": 204.1855621004
        }
    },
    "is_potentially_hazardous_asteroid": false,
    "close_approach_data": [
        {
            "close_approach_date": "2018-04-21",
            "close_approach_date_full": "2018-Apr-21 13:12",
            "epoch_date_close_approach": 1524316320000,
            "relative_velocity": {
                "kilometers_per_second": "14.3665079218",
                "kilometers_per_hour": "51719.4285185171",
                "miles_per_hour": "32136.4415702975"
            },
            "miss_distance": {
                "astronomical": "0.0612479424",
                "lunar": "23.8254495936",
                "kilometers": "9162561.724922688",
                "miles": "5693351.8516335744"
            },
            "orbiting_body": "Earth"
        }
    ],
    "orbital_data": {
        "orbit_id": "2",
        "orbit_determination_date": "2018-04-17 06:37:56",
        "first_observation_date": "2018-04-11",
        "last_observation_date": "2018-04-17",
        "data_arc_in_days": 6,
        "observations_used": 21,
        "orbit_uncertainty": "9",
        "minimum_orbit_intersection": ".0398222",
        "jupiter_tisserand_invariant": "3.692",
        "epoch_osculation": "2458220.5",
        "eccentricity": ".5668692620002073",
        "semi_major_axis": "1.932570559647232",
        "inclination": "5.449247600728495",
        "ascending_node_longitude": "175.2297495695429",
        "orbital_period": "981.2992475476576",
        "perihelion_distance": ".8370557127366781",
        "perihelion_argument": "96.39690193664944",
        "aphelion_distance": "3.028085406557786",
        "perihelion_time": "2458272.416147923061",
        "mean_anomaly": "340.9540124493021",
        "mean_motion": ".366860568679399",
        "equinox": "J2000",
        "orbit_class": {
            "orbit_class_type": "APO",
            "orbit_class_description": "Near-Earth asteroid orbits which cross the Earth’s orbit similar to that of 1862 Apollo",
            "orbit_class_range": "a (semi-major axis) > 1.0 AU; q (perihelion) < 1.017 AU"
        }
    },
    "is_sentry_object": false
}